BRITE-CA1 (TORONTO)     
1 40020U 14033L   26170.61967506  .00000553  00000+0  91013-4 0  9993
2 40020  97.9743 299.5027 0077212 269.0848  90.1513 14.72679560642577
DUCHIFAT-1              
1 40021U 14033M   26169.68438844  .00088318  00000+0  89916-3 0  9990
2 40021  98.0447 229.0553 0002814 113.8680 246.2872 15.64848252655988
NANOSATC-BR1            
1 40024U 14033Q   26170.55757160  .00013791  00000+0  45551-3 0  9996
2 40024  98.0718 203.1557 0004579 156.7506 203.3942 15.31519483654348
QB50P1                  
1 40025U 14033R   26170.25905701  .00006785  00000+0  33444-3 0  9993
2 40025  98.0964 181.5504 0008005 207.6997 152.3810 15.18285787653349
QB50P2                  
1 40032U 14033Y   26170.47756064  .00006408  00000+0  34511-3 0  9999
2 40032  98.0755 167.5004 0008192 156.5164 203.6442 15.15183403653013
PERSEUS-M2              
1 40037U 14033AD  26170.60563559  .00001152  00000+0  10940-3 0  9995
2 40037  97.9967 121.1954 0010389 295.2268  64.7875 14.95514270651143
PERSEUS-M1              
1 40039U 14033AF  26170.57845526  .00001374  00000+0  12899-3 0  9991
2 40039  97.9640 114.7493 0010133 292.2356  67.7790 14.95636995650991
POLYITAN-1              
1 40042U 14033AJ  26170.33641670  .00016256  00000+0  50656-3 0  9991
2 40042  98.0941 196.8009 0008752 135.2104 224.9844 15.33319639653925
TIGRISAT                
1 40043U 14033AK  26170.47394176  .00001548  00000+0  18306-3 0  9997
2 40043  97.7834 320.4330 0050515  67.8951 292.7617 14.85169819645964
AEROCUBE 6A             
1 40045U 14033AM  26170.36126811  .00004052  00000+0  34190-3 0  9998
2 40045  97.7252 337.2870 0038716  10.6828 349.5208 14.98126940646941
AEROCUBE 6B             
1 40046U 14033AN  26170.36148202  .00004034  00000+0  32793-3 0  9994
2 40046  97.7249 337.0821 0038150   1.8619 358.2739 14.99587127647085
CANX-4                  
1 40055U 14034C   26170.58371055  .00000663  00000+0  92291-4 0  9997
2 40055  98.3119  45.9848 0012989   9.5361 350.6094 14.81268197644882
